{
  "type": "FeatureCollection",
  "features": [
    {
      "type": "Feature",
      "properties": {
        "norad_id": 37717,
        "name": "FENGYUN 1C DEB",
        "group": "fengyun-1c-debris",
        "lat": 42.932864788913754,
        "lon": 141.45876451878726,
        "alt_km": 562.9218102322193,
        "timestamp": "2025-12-22T09:53:37.690982+00:00",
        "meta_object_name": "FENGYUN 1C DEB",
        "meta_object_id": "1999-025EMJ",
        "meta_epoch": "2025-12-15T15:45:42.031008",
        "meta_mean_motion": 14.94137729,
        "meta_eccentricity": 0.0058722,
        "meta_inclination": 98.7255,
        "meta_ra_of_asc_node": 305.7435,
        "meta_arg_of_pericenter": 93.683,
        "meta_mean_anomaly": 83.3944,
        "meta_ephemeris_type": 0,
        "meta_classification_type": "U",
        "meta_norad_cat_id": 37717,
        "meta_element_set_no": 999,
        "meta_rev_at_epoch": 89441,
        "meta_bstar": 0.0018768,
        "meta_mean_motion_dot": 0.00020752,
        "meta_mean_motion_ddot": 0,
        "tle_line1": "1 37717U 99025EMJ 25349.65673647  .00020752  00000+0  18768-2 0  9994",
        "tle_line2": "2 37717  98.7255 305.7435 0058722  93.6830  83.3944 14.94137729894417"
      },
      "geometry": {
        "type": "Point",
        "coordinates": [
          141.45876451878726,
          42.932864788913754
        ]
      }
    },
    {
      "type": "Feature",
      "properties": {
        "norad_id": 37902,
        "name": "FENGYUN 1C DEB",
        "group": "fengyun-1c-debris",
        "lat": 21.96366999097286,
        "lon": 39.01801196698524,
        "alt_km": 1192.3480761760675,
        "timestamp": "2025-12-22T09:53:37.690992+00:00",
        "meta_object_name": "FENGYUN 1C DEB",
        "meta_object_id": "1999-025ENB",
        "meta_epoch": "2025-12-07T14:03:14.833440",
        "meta_mean_motion": 13.52640367,
        "meta_eccentricity": 0.03237878,
        "meta_inclination": 98.6837,
        "meta_ra_of_asc_node": 202.4677,
        "meta_arg_of_pericenter": 320.2654,
        "meta_mean_anomaly": 37.5166,
        "meta_ephemeris_type": 0,
        "meta_classification_type": "U",
        "meta_norad_cat_id": 37902,
        "meta_element_set_no": 999,
        "meta_rev_at_epoch": 62907,
        "meta_bstar": 0.003775391,
        "meta_mean_motion_dot": 3.447e-05,
        "meta_mean_motion_ddot": 0,
        "tle_line1": "1 37902U 99025ENB 25341.58558835  .00003447  00000+0  37754-2 0  9993",
        "tle_line2": "2 37902  98.6837 202.4677 0323787 320.2654  37.5166 13.52640367629073"
      },
      "geometry": {
        "type": "Point",
        "coordinates": [
          39.01801196698524,
          21.96366999097286
        ]
      }
    },
    {
      "type": "Feature",
      "properties": {
        "norad_id": 37906,
        "name": "FENGYUN 1C DEB",
        "group": "fengyun-1c-debris",
        "lat": 52.5743999584076,
        "lon": 24.64638406037823,
        "alt_km": 879.3585993235902,
        "timestamp": "2025-12-22T09:53:37.691002+00:00",
        "meta_object_name": "FENGYUN 1C DEB",
        "meta_object_id": "1999-025ENF",
        "meta_epoch": "2025-12-21T09:22:09.810048",
        "meta_mean_motion": 13.80800033,
        "meta_eccentricity": 0.01624398,
        "meta_inclination": 99.6005,
        "meta_ra_of_asc_node": 36.3858,
        "meta_arg_of_pericenter": 5.7083,
        "meta_mean_anomaly": 9.7628,
        "meta_ephemeris_type": 0,
        "meta_classification_type": "U",
        "meta_norad_cat_id": 37906,
        "meta_element_set_no": 999,
        "meta_rev_at_epoch": 59575,
        "meta_bstar": 0.00052450517,
        "meta_mean_motion_dot": 5.63e-06,
        "meta_mean_motion_ddot": 0,
        "tle_line1": "1 37906U 99025ENF 25355.39039132  .00000563  00000+0  52451-3 0  9993",
        "tle_line2": "2 37906  99.6005  36.3858 0162439   5.7083   9.7628 13.80800033595756"
      },
      "geometry": {
        "type": "Point",
        "coordinates": [
          24.64638406037823,
          52.5743999584076
        ]
      }
    },
    {
      "type": "Feature",
      "properties": {
        "norad_id": 37907,
        "name": "FENGYUN 1C DEB",
        "group": "fengyun-1c-debris",
        "lat": 42.267880125203746,
        "lon": 101.3414153856542,
        "alt_km": 828.9865557471876,
        "timestamp": "2025-12-22T09:53:37.691012+00:00",
        "meta_object_name": "FENGYUN 1C DEB",
        "meta_object_id": "1999-025ENG",
        "meta_epoch": "2025-12-18T02:47:52.898208",
        "meta_mean_motion": 14.23621509,
        "meta_eccentricity": 0.00633304,
        "meta_inclination": 99.0798,
        "meta_ra_of_asc_node": 105.2668,
        "meta_arg_of_pericenter": 171.0108,
        "meta_mean_anomaly": 189.2219,
        "meta_ephemeris_type": 0,
        "meta_classification_type": "U",
        "meta_norad_cat_id": 37907,
        "meta_element_set_no": 999,
        "meta_rev_at_epoch": 83349,
        "meta_bstar": 0.0022047538,
        "meta_mean_motion_dot": 5.087e-05,
        "meta_mean_motion_ddot": 0,
        "tle_line1": "1 37907U 99025ENG 25352.11658447  .00005087  00000+0  22048-2 0  9991",
        "tle_line2": "2 37907  99.0798 105.2668 0063330 171.0108 189.2219 14.23621509833493"
      },
      "geometry": {
        "type": "Point",
        "coordinates": [
          101.3414153856542,
          42.267880125203746
        ]
      }
    },
    {
      "type": "Feature",
      "properties": {
        "norad_id": 37908,
        "name": "FENGYUN 1C DEB",
        "group": "fengyun-1c-debris",
        "lat": -80.50594432803764,
        "lon": 103.46290468892539,
        "alt_km": 819.4363825910732,
        "timestamp": "2025-12-22T09:53:37.691022+00:00",
        "meta_object_name": "FENGYUN 1C DEB",
        "meta_object_id": "1999-025ENH",
        "meta_epoch": "2025-12-21T07:33:41.046624",
        "meta_mean_motion": 14.36621553,
        "meta_eccentricity": 0.0074756,
        "meta_inclination": 99.1512,
        "meta_ra_of_asc_node": 27.7446,
        "meta_arg_of_pericenter": 132.8804,
        "meta_mean_anomaly": 227.869,
        "meta_ephemeris_type": 0,
        "meta_classification_type": "U",
        "meta_norad_cat_id": 37908,
        "meta_element_set_no": 999,
        "meta_rev_at_epoch": 64184,
        "meta_bstar": 0.00036301,
        "meta_mean_motion_dot": 1.053e-05,
        "meta_mean_motion_ddot": 0,
        "tle_line1": "1 37908U 99025ENH 25355.31505841  .00001053  00000+0  36301-3 0  9993",
        "tle_line2": "2 37908  99.1512  27.7446 0074756 132.8804 227.8690 14.36621553641844"
      },
      "geometry": {
        "type": "Point",
        "coordinates": [
          103.46290468892539,
          -80.50594432803764
        ]
      }
    },
    {
      "type": "Feature",
      "properties": {
        "norad_id": 37912,
        "name": "FENGYUN 1C DEB",
        "group": "fengyun-1c-debris",
        "lat": 70.00786657329257,
        "lon": 171.84607693679902,
        "alt_km": 828.9646519152711,
        "timestamp": "2025-12-22T09:53:37.691032+00:00",
        "meta_object_name": "FENGYUN 1C DEB",
        "meta_object_id": "1999-025ENM",
        "meta_epoch": "2025-12-17T20:31:02.815680",
        "meta_mean_motion": 14.1153782,
        "meta_eccentricity": 0.00921589,
        "meta_inclination": 99.2285,
        "meta_ra_of_asc_node": 320.6183,
        "meta_arg_of_pericenter": 45.8497,
        "meta_mean_anomaly": 315.0203,
        "meta_ephemeris_type": 0,
        "meta_classification_type": "U",
        "meta_norad_cat_id": 37912,
        "meta_element_set_no": 999,
        "meta_rev_at_epoch": 77360,
        "meta_bstar": 0.0021693094,
        "meta_mean_motion_dot": 4.053e-05,
        "meta_mean_motion_ddot": 0,
        "tle_line1": "1 37912U 99025ENM 25351.85489370  .00004053  00000+0  21693-2 0  9991",
        "tle_line2": "2 37912  99.2285 320.6183 0092158  45.8497 315.0203 14.11537820773603"
      },
      "geometry": {
        "type": "Point",
        "coordinates": [
          171.84607693679902,
          70.00786657329257
        ]
      }
    },
    {
      "type": "Feature",
      "properties": {
        "norad_id": 37918,
        "name": "FENGYUN 1C DEB",
        "group": "fengyun-1c-debris",
        "lat": -39.7587777774209,
        "lon": 118.6994476033506,
        "alt_km": 751.1852171230485,
        "timestamp": "2025-12-22T09:53:37.691042+00:00",
        "meta_object_name": "FENGYUN 1C DEB",
        "meta_object_id": "1999-025ENT",
        "meta_epoch": "2025-12-20T20:02:06.921312",
        "meta_mean_motion": 14.34412668,
        "meta_eccentricity": 0.00547908,
        "meta_inclination": 99.0289,
        "meta_ra_of_asc_node": 304.6539,
        "meta_arg_of_pericenter": 259.6508,
        "meta_mean_anomaly": 99.8496,
        "meta_ephemeris_type": 0,
        "meta_classification_type": "U",
        "meta_norad_cat_id": 37918,
        "meta_element_set_no": 999,
        "meta_rev_at_epoch": 3658,
        "meta_bstar": 0.00044138632,
        "meta_mean_motion_dot": 1.215e-05,
        "meta_mean_motion_ddot": 0,
        "tle_line1": "1 37918U 99025ENT 25354.83480233  .00001215  00000+0  44139-3 0  9995",
        "tle_line2": "2 37918  99.0289 304.6539 0054790 259.6508  99.8496 14.34412668 36583"
      },
      "geometry": {
        "type": "Point",
        "coordinates": [
          118.6994476033506,
          -39.7587777774209
        ]
      }
    }
  ]
}